     3.02           N: GNSS NAV DATA    R: GLONASS          RINEX VERSION / TYPE
sbf2rin-10.2.0                          20160106 003505 LCL PGM / RUN BY / DATE 
    17                                                      LEAP SECONDS        
                                                            END OF HEADER       
R08 2016 01 05 04 45 00-2.704374492168E-05-0.000000000000E+00 1.900800000000E+05
     2.146318896484E+04 1.681819915771E+00 0.000000000000E+00 0.000000000000E+00
     3.717364746094E+03 7.029676437378E-01 2.793967723846E-09 6.000000000000E+00
    -1.321895703125E+04 2.920048713684E+00 0.000000000000E+00 0.000000000000E+00
R07 2016 01 05 05 15 00-5.149282515049E-06-0.000000000000E+00 1.908000000000E+05
     2.038022607422E+04-1.197143554688E+00 9.313225746155E-10 0.000000000000E+00
     1.196228466797E+04-5.689477920532E-01 1.862645149231E-09 5.000000000000E+00
     9.657645996094E+03 3.236939430237E+00-1.862645149231E-09 0.000000000000E+00
R06 2016 01 05 05 15 00 8.135288953781E-05 0.000000000000E+00 1.908000000000E+05
     5.608525878906E+03-2.754096031189E+00 0.000000000000E+00 0.000000000000E+00
     1.279681738281E+04-9.817790985107E-01-0.000000000000E+00-4.000000000000E+00
     2.132849267578E+04 1.309309005737E+00-2.793967723846E-09 0.000000000000E+00
R13 2016 01 05 05 15 00 1.177843660116E-05-0.000000000000E+00 1.908000000000E+05
     6.617858886719E+03 1.786352157593E+00-1.862645149231E-09 0.000000000000E+00
    -1.673267041016E+04-1.723559379578E+00-1.862645149231E-09-2.000000000000E+00
     1.806749560547E+04-2.248888015747E+00-0.000000000000E+00 0.000000000000E+00
R22 2016 01 05 05 15 00 1.872833818197E-04 9.094947017729E-13 1.908000000000E+05
     1.127589257813E+04 6.035099029541E-01-0.000000000000E+00 0.000000000000E+00
     3.517618164063E+03 3.037990570068E+00-0.000000000000E+00-3.000000000000E+00
     2.263033837891E+04-7.611131668091E-01-2.793967723846E-09 0.000000000000E+00
R21 2016 01 05 05 15 00 4.540570080280E-05 1.818989403546E-12 1.908000000000E+05
     9.588997070313E+03 4.631042480469E-01 9.313225746155E-10 0.000000000000E+00
     2.003040625000E+04 1.660355567932E+00 9.313225746155E-10 4.000000000000E+00
     1.252589599609E+04-3.013012886047E+00-2.793967723846E-09 0.000000000000E+00
R12 2016 01 05 05 15 00 3.144703805447E-05 0.000000000000E+00 1.908000000000E+05
     1.857986279297E+04 1.021976470947E-01-9.313225746155E-10 0.000000000000E+00
    -1.723347070313E+04-3.153772354126E-01 0.000000000000E+00-1.000000000000E+00
     2.035673339844E+03-3.578331947327E+00 0.000000000000E+00 0.000000000000E+00
R23 2016 01 05 05 15 00-6.685499101877E-05-3.637978807092E-12 1.908000000000E+05
     5.952148437500E+03 3.531427383423E-01-1.862645149231E-09 0.000000000000E+00
    -1.605042968750E+04 2.569991111755E+00-1.862645149231E-09 3.000000000000E+00
     1.890836621094E+04 2.069425582886E+00-0.000000000000E+00 0.000000000000E+00
R08 2016 01 05 05 15 00-2.704467624426E-05-0.000000000000E+00 1.908000000000E+05
     2.393357373047E+04 1.027244567871E+00 0.000000000000E+00 0.000000000000E+00
     4.509244628906E+03 2.011909484863E-01 2.793967723846E-09 6.000000000000E+00
    -7.518380371094E+03 3.372604370117E+00-0.000000000000E+00 0.000000000000E+00
R05 2016 01 05 05 15 00 2.793967723846E-06-9.094947017729E-13 1.908000000000E+05
    -1.368912500000E+04-2.703346252441E+00-0.000000000000E+00 0.000000000000E+00
     5.954944335938E+03-8.484716415405E-01-1.862645149231E-09 1.000000000000E+00
     2.067018896484E+04-1.543969154358E+00-9.313225746155E-10 0.000000000000E+00
R14 2016 01 05 05 15 00 2.646641805768E-04 4.547473508865E-12 1.909500000000E+05
    -9.344694335938E+03 2.431153297424E+00-9.313225746155E-10 0.000000000000E+00
    -5.702649902344E+03-2.020382881165E+00-2.793967723846E-09-7.000000000000E+00
     2.303023144531E+04 4.795618057251E-01-9.313225746155E-10 0.000000000000E+00
R07 2016 01 05 05 45 00-5.150213837624E-06-0.000000000000E+00 1.926000000000E+05
     1.749909863281E+04-1.986306190491E+00 9.313225746155E-10 0.000000000000E+00
     1.093451660156E+04-5.325822830200E-01 9.313225746155E-10 5.000000000000E+00
     1.503661669922E+04 2.701027870178E+00-2.793967723846E-09 0.000000000000E+00
R23 2016 01 05 05 45 00-6.686244159937E-05-3.637978807092E-12 1.926000000000E+05
     7.035595214844E+03 8.577871322632E-01-9.313225746155E-10 0.000000000000E+00
    -1.110897412109E+04 2.870588302612E+00-9.313225746155E-10 3.000000000000E+00
     2.185412109375E+04 1.182372093201E+00-9.313225746155E-10 0.000000000000E+00
R06 2016 01 05 05 45 00 8.135382086039E-05 0.000000000000E+00 1.926000000000E+05
     3.270903320313E+02-3.068406105042E+00 0.000000000000E+00 0.000000000000E+00
     1.133859228516E+04-6.165151596069E-01-9.313225746155E-10-4.000000000000E+00
     2.282915820313E+04 3.471603393555E-01-2.793967723846E-09 0.000000000000E+00
R22 2016 01 05 05 45 00 1.872889697552E-04 9.094947017729E-13 1.926000000000E+05
     1.269981103516E+04 9.526748657227E-01 0.000000000000E+00 0.000000000000E+00
     8.653347167969E+03 2.624402046204E+00 0.000000000000E+00-3.000000000000E+00
     2.040586718750E+04-1.694213867188E+00-2.793967723846E-09 0.000000000000E+00
R21 2016 01 05 05 45 00 4.540849477053E-05 1.818989403546E-12 1.926000000000E+05
     1.045022851563E+04 4.519309997559E-01 1.862645149231E-09 0.000000000000E+00
     2.227114160156E+04 8.171596527100E-01 1.862645149231E-09 4.000000000000E+00
     6.687651367188E+03-3.431759834290E+00-2.793967723846E-09 0.000000000000E+00
R12 2016 01 05 05 45 00 3.144703805447E-05 0.000000000000E+00 1.926000000000E+05
     1.816850976563E+04-5.282421112061E-01-9.313225746155E-10 0.000000000000E+00
    -1.724029882813E+04 3.354005813599E-01 9.313225746155E-10-1.000000000000E+00
    -4.400765625000E+03-3.526376724243E+00 9.313225746155E-10 0.000000000000E+00
R13 2016 01 05 05 45 00 1.177750527859E-05-0.000000000000E+00 1.926000000000E+05
     9.209071777344E+03 1.088579177856E+00-1.862645149231E-09 0.000000000000E+00
    -1.966467431641E+04-1.487118721008E+00-9.313225746155E-10-2.000000000000E+00
     1.337273242188E+04-2.933593750000E+00 0.000000000000E+00 0.000000000000E+00
R08 2016 01 05 05 45 00-2.704467624426E-05-0.000000000000E+00 1.926000000000E+05
     2.505888964844E+04 2.029895782471E-01 9.313225746155E-10 0.000000000000E+00
     4.552297851563E+03-1.173810958862E-01 2.793967723846E-09 6.000000000000E+00
    -1.235025390625E+03 3.563446044922E+00-9.313225746155E-10 0.000000000000E+00
R14 2016 01 05 05 45 00 2.646725624800E-04 4.547473508865E-12 1.926000000000E+05
    -5.236790039063E+03 2.095125198364E+00-1.862645149231E-09 0.000000000000E+00
    -9.680204101563E+03-2.361907958984E+00-2.793967723846E-09-7.000000000000E+00
     2.299091357422E+04-5.231657028198E-01-9.313225746155E-10 0.000000000000E+00
R24 2016 01 05 05 45 00-1.325113698840E-04-0.000000000000E+00 1.943700000000E+05
    -2.005164550781E+03 2.995338439941E-01-1.862645149231E-09 0.000000000000E+00
    -2.288209082031E+04 1.500839233398E+00-1.862645149231E-09 2.000000000000E+00
     1.106832080078E+04 3.151425361633E+00 9.313225746155E-10 0.000000000000E+00
R07 2016 01 05 06 15 00-5.150213837624E-06 0.000000000000E+00 1.944000000000E+05
     1.332531347656E+04-2.616589546204E+00 0.000000000000E+00 0.000000000000E+00
     1.017762744141E+04-2.764835357666E-01 0.000000000000E+00 5.000000000000E+00
     1.925620605469E+04 1.957083702087E+00-2.793967723846E-09 0.000000000000E+00
R23 2016 01 05 06 15 00-6.686989217997E-05-3.637978807092E-12 1.944000000000E+05
     9.032398925781E+03 1.349434852600E+00-9.313225746155E-10 0.000000000000E+00
    -5.900605468750E+03 2.865629196167E+00-9.313225746155E-10 3.000000000000E+00
     2.310987304688E+04 2.038364410400E-01-1.862645149231E-09 0.000000000000E+00
R08 2016 01 05 06 15 00-2.704560756683E-05-0.000000000000E+00 1.944000000000E+05
     2.462553466797E+04-6.855573654175E-01 9.313225746155E-10 0.000000000000E+00
     4.227656250000E+03-2.024641036987E-01 1.862645149231E-09 6.000000000000E+00
     5.144036621094E+03 3.478365898132E+00-1.862645149231E-09 0.000000000000E+00
R22 2016 01 05 06 15 00 1.872926950455E-04 1.818989403546E-12 1.944000000000E+05
     1.458773437500E+04 1.106657981873E+00 9.313225746155E-10 0.000000000000E+00
     1.283044189453E+04 1.986866950989E+00 0.000000000000E+00-3.000000000000E+00
     1.661058251953E+04-2.495310783386E+00-2.793967723846E-09 0.000000000000E+00
R14 2016 01 05 06 15 00 2.646809443831E-04 3.637978807092E-12 1.944000000000E+05
    -1.912784667969E+03 1.575783729553E+00-1.862645149231E-09 0.000000000000E+00
    -1.405054882813E+04-2.446495056152E+00-1.862645149231E-09-7.000000000000E+00
     2.117053222656E+04-1.486486434937E+00-0.000000000000E+00 0.000000000000E+00
R21 2016 01 05 06 15 00 4.541128873825E-05 1.818989403546E-12 1.944000000000E+05
     1.106379150391E+04 1.887207031250E-01 2.793967723846E-09 0.000000000000E+00
     2.296396337891E+04-3.974342346191E-02 1.862645149231E-09 4.000000000000E+00
     3.314125976563E+02-3.584782600403E+00-1.862645149231E-09 0.000000000000E+00
R06 2016 01 05 06 15 00 8.135475218296E-05 0.000000000000E+00 1.944000000000E+05
    -5.260687011719E+03-3.089134216309E+00-0.000000000000E+00 0.000000000000E+00
     1.062648046875E+04-1.698360443115E-01-9.313225746155E-10-4.000000000000E+00
     2.256177832031E+04-6.423978805542E-01-1.862645149231E-09 0.000000000000E+00
R13 2016 01 05 06 15 00 1.177657395601E-05-0.000000000000E+00 1.944000000000E+05
     1.055621240234E+04 4.229145050049E-01-1.862645149231E-09 0.000000000000E+00
    -2.192333447266E+04-9.806156158447E-01-0.000000000000E+00-2.000000000000E+00
     7.643184082031E+03-3.391185760498E+00 0.000000000000E+00 0.000000000000E+00
